<ndm xmlns:xsi="http://www.w3.org/2001/XMLSchema-instance" xsi:noNamespaceSchemaLocation="https://sanaregistry.org/r/ndmxml_unqualified/ndmxml-2.0.0-master-2.0.xsd">
<omm id="CCSDS_OMM_VERS" version="2.0">
<header>
<CREATION_DATE/>
<ORIGINATOR/>
</header>
<body>
<segment>
<metadata>
<OBJECT_NAME>IRIDIUM 920 [-]</OBJECT_NAME>
<OBJECT_ID>1997-034C</OBJECT_ID>
<CENTER_NAME>EARTH</CENTER_NAME>
<REF_FRAME>TEME</REF_FRAME>
<TIME_SYSTEM>UTC</TIME_SYSTEM>
<MEAN_ELEMENT_THEORY>SGP4</MEAN_ELEMENT_THEORY>
</metadata>
<data>
<meanElements>
<EPOCH>2023-04-16T07:00:39.094560</EPOCH>
<MEAN_MOTION>14.40146341</MEAN_MOTION>
<ECCENTRICITY>.0012299</ECCENTRICITY>
<INCLINATION>86.4048</INCLINATION>
<RA_OF_ASC_NODE>188.8583</RA_OF_ASC_NODE>
<ARG_OF_PERICENTER>164.8221</ARG_OF_PERICENTER>
<MEAN_ANOMALY>195.3349</MEAN_ANOMALY>
</meanElements>
<tleParameters>
<EPHEMERIS_TYPE>0</EPHEMERIS_TYPE>
<CLASSIFICATION_TYPE>U</CLASSIFICATION_TYPE>
<NORAD_CAT_ID>24871</NORAD_CAT_ID>
<ELEMENT_SET_NO>999</ELEMENT_SET_NO>
<REV_AT_EPOCH>35241</REV_AT_EPOCH>
<BSTAR>.22792E-3</BSTAR>
<MEAN_MOTION_DOT>.74E-5</MEAN_MOTION_DOT>
<MEAN_MOTION_DDOT>0</MEAN_MOTION_DDOT>
</tleParameters>
</data>
</segment>
</body>
</omm>
<omm id="CCSDS_OMM_VERS" version="2.0">
<header>
<CREATION_DATE/>
<ORIGINATOR/>
</header>
<body>
<segment>
<metadata>
<OBJECT_NAME>IRIDIUM 921 [-]</OBJECT_NAME>
<OBJECT_ID>1997-034E</OBJECT_ID>
<CENTER_NAME>EARTH</CENTER_NAME>
<REF_FRAME>TEME</REF_FRAME>
<TIME_SYSTEM>UTC</TIME_SYSTEM>
<MEAN_ELEMENT_THEORY>SGP4</MEAN_ELEMENT_THEORY>
</metadata>
<data>
<meanElements>
<EPOCH>2023-04-16T12:57:32.284800</EPOCH>
<MEAN_MOTION>15.21236806</MEAN_MOTION>
<ECCENTRICITY>.0009178</ECCENTRICITY>
<INCLINATION>86.3877</INCLINATION>
<RA_OF_ASC_NODE>136.1056</RA_OF_ASC_NODE>
<ARG_OF_PERICENTER>79.9216</ARG_OF_PERICENTER>
<MEAN_ANOMALY>280.3063</MEAN_ANOMALY>
</meanElements>
<tleParameters>
<EPHEMERIS_TYPE>0</EPHEMERIS_TYPE>
<CLASSIFICATION_TYPE>U</CLASSIFICATION_TYPE>
<NORAD_CAT_ID>24873</NORAD_CAT_ID>
<ELEMENT_SET_NO>999</ELEMENT_SET_NO>
<REV_AT_EPOCH>40986</REV_AT_EPOCH>
<BSTAR>.6827E-3</BSTAR>
<MEAN_MOTION_DOT>.153E-3</MEAN_MOTION_DOT>
<MEAN_MOTION_DDOT>0</MEAN_MOTION_DDOT>
</tleParameters>
</data>
</segment>
</body>
</omm>
<omm id="CCSDS_OMM_VERS" version="2.0">
<header>
<CREATION_DATE/>
<ORIGINATOR/>
</header>
<body>
<segment>
<metadata>
<OBJECT_NAME>IRIDIUM 26 [-]</OBJECT_NAME>
<OBJECT_ID>1997-043A</OBJECT_ID>
<CENTER_NAME>EARTH</CENTER_NAME>
<REF_FRAME>TEME</REF_FRAME>
<TIME_SYSTEM>UTC</TIME_SYSTEM>
<MEAN_ELEMENT_THEORY>SGP4</MEAN_ELEMENT_THEORY>
</metadata>
<data>
<meanElements>
<EPOCH>2023-04-16T10:32:41.052192</EPOCH>
<MEAN_MOTION>14.35840420</MEAN_MOTION>
<ECCENTRICITY>.0002187</ECCENTRICITY>
<INCLINATION>86.3921</INCLINATION>
<RA_OF_ASC_NODE>83.1587</RA_OF_ASC_NODE>
<ARG_OF_PERICENTER>92.2652</ARG_OF_PERICENTER>
<MEAN_ANOMALY>267.8795</MEAN_ANOMALY>
</meanElements>
<tleParameters>
<EPHEMERIS_TYPE>0</EPHEMERIS_TYPE>
<CLASSIFICATION_TYPE>U</CLASSIFICATION_TYPE>
<NORAD_CAT_ID>24903</NORAD_CAT_ID>
<ELEMENT_SET_NO>999</ELEMENT_SET_NO>
<REV_AT_EPOCH>34294</REV_AT_EPOCH>
<BSTAR>.31789E-3</BSTAR>
<MEAN_MOTION_DOT>.94E-5</MEAN_MOTION_DOT>
<MEAN_MOTION_DDOT>0</MEAN_MOTION_DDOT>
</tleParameters>
</data>
</segment>
</body>
</omm>
<omm id="CCSDS_OMM_VERS" version="2.0">
<header>
<CREATION_DATE/>
<ORIGINATOR/>
</header>
<body>
<segment>
<metadata>
<OBJECT_NAME>IRIDIUM 22 [-]</OBJECT_NAME>
<OBJECT_ID>1997-043E</OBJECT_ID>
<CENTER_NAME>EARTH</CENTER_NAME>
<REF_FRAME>TEME</REF_FRAME>
<TIME_SYSTEM>UTC</TIME_SYSTEM>
<MEAN_ELEMENT_THEORY>SGP4</MEAN_ELEMENT_THEORY>
</metadata>
<data>
<meanElements>
<EPOCH>2023-04-16T10:44:38.037408</EPOCH>
<MEAN_MOTION>14.34759472</MEAN_MOTION>
<ECCENTRICITY>.0002202</ECCENTRICITY>
<INCLINATION>86.3920</INCLINATION>
<RA_OF_ASC_NODE>86.0600</RA_OF_ASC_NODE>
<ARG_OF_PERICENTER>86.8598</ARG_OF_PERICENTER>
<MEAN_ANOMALY>273.2850</MEAN_ANOMALY>
</meanElements>
<tleParameters>
<EPHEMERIS_TYPE>0</EPHEMERIS_TYPE>
<CLASSIFICATION_TYPE>U</CLASSIFICATION_TYPE>
<NORAD_CAT_ID>24907</NORAD_CAT_ID>
<ELEMENT_SET_NO>999</ELEMENT_SET_NO>
<REV_AT_EPOCH>34306</REV_AT_EPOCH>
<BSTAR>.29542E-3</BSTAR>
<MEAN_MOTION_DOT>.856E-5</MEAN_MOTION_DOT>
<MEAN_MOTION_DDOT>0</MEAN_MOTION_DDOT>
</tleParameters>
</data>
</segment>
</body>
</omm>
<omm id="CCSDS_OMM_VERS" version="2.0">
<header>
<CREATION_DATE/>
<ORIGINATOR/>
</header>
<body>
<segment>
<metadata>
<OBJECT_NAME>DUMMY MASS 1 [-]</OBJECT_NAME>
<OBJECT_ID>1997-048A</OBJECT_ID>
<CENTER_NAME>EARTH</CENTER_NAME>
<REF_FRAME>TEME</REF_FRAME>
<TIME_SYSTEM>UTC</TIME_SYSTEM>
<MEAN_ELEMENT_THEORY>SGP4</MEAN_ELEMENT_THEORY>
</metadata>
<data>
<meanElements>
<EPOCH>2023-04-16T13:38:00.928320</EPOCH>
<MEAN_MOTION>14.85667251</MEAN_MOTION>
<ECCENTRICITY>.0009285</ECCENTRICITY>
<INCLINATION>86.3340</INCLINATION>
<RA_OF_ASC_NODE>141.4800</RA_OF_ASC_NODE>
<ARG_OF_PERICENTER>78.1537</ARG_OF_PERICENTER>
<MEAN_ANOMALY>282.0728</MEAN_ANOMALY>
</meanElements>
<tleParameters>
<EPHEMERIS_TYPE>0</EPHEMERIS_TYPE>
<CLASSIFICATION_TYPE>U</CLASSIFICATION_TYPE>
<NORAD_CAT_ID>24925</NORAD_CAT_ID>
<ELEMENT_SET_NO>999</ELEMENT_SET_NO>
<REV_AT_EPOCH>38740</REV_AT_EPOCH>
<BSTAR>.78912E-4</BSTAR>
<MEAN_MOTION_DOT>.712E-5</MEAN_MOTION_DOT>
<MEAN_MOTION_DDOT>0</MEAN_MOTION_DDOT>
</tleParameters>
</data>
</segment>
</body>
</omm>
<omm id="CCSDS_OMM_VERS" version="2.0">
<header>
<CREATION_DATE/>
<ORIGINATOR/>
</header>
<body>
<segment>
<metadata>
<OBJECT_NAME>DUMMY MASS 2 [-]</OBJECT_NAME>
<OBJECT_ID>1997-048B</OBJECT_ID>
<CENTER_NAME>EARTH</CENTER_NAME>
<REF_FRAME>TEME</REF_FRAME>
<TIME_SYSTEM>UTC</TIME_SYSTEM>
<MEAN_ELEMENT_THEORY>SGP4</MEAN_ELEMENT_THEORY>
</metadata>
<data>
<meanElements>
<EPOCH>2023-04-16T12:51:46.075680</EPOCH>
<MEAN_MOTION>14.85430984</MEAN_MOTION>
<ECCENTRICITY>.0010178</ECCENTRICITY>
<INCLINATION>86.3343</INCLINATION>
<RA_OF_ASC_NODE>142.9630</RA_OF_ASC_NODE>
<ARG_OF_PERICENTER>85.9230</ARG_OF_PERICENTER>
<MEAN_ANOMALY>274.3157</MEAN_ANOMALY>
</meanElements>
<tleParameters>
<EPHEMERIS_TYPE>0</EPHEMERIS_TYPE>
<CLASSIFICATION_TYPE>U</CLASSIFICATION_TYPE>
<NORAD_CAT_ID>24926</NORAD_CAT_ID>
<ELEMENT_SET_NO>999</ELEMENT_SET_NO>
<REV_AT_EPOCH>38719</REV_AT_EPOCH>
<BSTAR>.76963E-4</BSTAR>
<MEAN_MOTION_DOT>.691E-5</MEAN_MOTION_DOT>
<MEAN_MOTION_DDOT>0</MEAN_MOTION_DDOT>
</tleParameters>
</data>
</segment>
</body>
</omm>
<omm id="CCSDS_OMM_VERS" version="2.0">
<header>
<CREATION_DATE/>
<ORIGINATOR/>
</header>
<body>
<segment>
<metadata>
<OBJECT_NAME>IRIDIUM 29 [-]</OBJECT_NAME>
<OBJECT_ID>1997-051A</OBJECT_ID>
<CENTER_NAME>EARTH</CENTER_NAME>
<REF_FRAME>TEME</REF_FRAME>
<TIME_SYSTEM>UTC</TIME_SYSTEM>
<MEAN_ELEMENT_THEORY>SGP4</MEAN_ELEMENT_THEORY>
</metadata>
<data>
<meanElements>
<EPOCH>2023-04-16T12:24:41.271840</EPOCH>
<MEAN_MOTION>14.35218872</MEAN_MOTION>
<ECCENTRICITY>.0002121</ECCENTRICITY>
<INCLINATION>86.3910</INCLINATION>
<RA_OF_ASC_NODE>116.1138</RA_OF_ASC_NODE>
<ARG_OF_PERICENTER>84.2325</ARG_OF_PERICENTER>
<MEAN_ANOMALY>275.9113</MEAN_ANOMALY>
</meanElements>
<tleParameters>
<EPHEMERIS_TYPE>0</EPHEMERIS_TYPE>
<CLASSIFICATION_TYPE>U</CLASSIFICATION_TYPE>
<NORAD_CAT_ID>24944</NORAD_CAT_ID>
<ELEMENT_SET_NO>999</ELEMENT_SET_NO>
<REV_AT_EPOCH>33953</REV_AT_EPOCH>
<BSTAR>.25013E-3</BSTAR>
<MEAN_MOTION_DOT>.734E-5</MEAN_MOTION_DOT>
<MEAN_MOTION_DDOT>0</MEAN_MOTION_DDOT>
</tleParameters>
</data>
</segment>
</body>
</omm>

</ndm>